{
  "type": "FeatureCollection",
  "features": [
    {
      "type": "Feature",
      "id": "2f2ca3f8-1b5c-4da1-9f7e-7cb55c14d85b",
      "geometry": {
        "type": "Point",
        "coordinates": [
          -122.4783,
          37.8199,
          67
        ]
      },
      "properties": {
        "name": "Golden Gate Bridge",
        "description": "Suspension bridge in San Francisco",
        "folder_id": "73c88dd6-68e4-47df-b935-7d8851531a32",
        "icon-color": "#ff0000",
        "icon-opacity": 1,
        "icon-size": 1.3,
        "icon-image": "https://maps.google.com/mapfiles/kml/paddle/red-circle.png",
        "text-color": "#ffffff",
        "text-opacity": 1,
        "text-size": 18
      }
    },
    {
      "type": "Feature",
      "id": "c3c5a94f-bfd9-4023-a881-f977f7b3a4a4",
      "geometry": {
        "type": "Point",
        "coordinates": [
          -122.423,
          37.8267,
          41
        ]
      },
      "properties": {
        "name": "Alcatraz Island",
        "description": "Former federal prison",
        "folder_id": "73c88dd6-68e4-47df-b935-7d8851531a32",
        "icon-color": "#ff0000",
        "icon-opacity": 1,
        "icon-size": 1.3,
        "icon-image": "https://maps.google.com/mapfiles/kml/paddle/red-circle.png",
        "text-color": "#ffffff",
        "text-opacity": 1,
        "text-size": 18
      }
    },
    {
      "type": "Feature",
      "id": "27b47cf4-d1b2-4a15-9796-fd25ab33044c",
      "geometry": {
        "type": "LineString",
        "coordinates": [
          [
            -122.4783,
            37.8199,
            67
          ],
          [
            -122.4833,
            37.8324,
            120
          ],
          [
            -122.499,
            37.8267,
            200
          ],
          [
            -122.5265,
            37.8324,
            150
          ]
        ]
      },
      "properties": {
        "name": "Bridge to Marin Headlands",
        "description": "",
        "folder_id": "6b546fe3-77fe-4cfd-9ba8-24fdeb5316d8",
        "line-color": "#ffff00",
        "line-opacity": 0.4980392156862745,
        "line-width": 4
      }
    },
    {
      "type": "Feature",
      "id": "5274dd72-66b3-4710-a2c0-0161b1e4f8cf",
      "geometry": {
        "type": "Polygon",
        "coordinates": [
          [
            [
              -122.479,
              37.788,
              0
            ],
            [
              -122.446,
              37.788,
              0
            ],
            [
              -122.446,
              37.806,
              0
            ],
            [
              -122.479,
              37.806,
              0
            ],
            [
              -122.479,
              37.788,
              0
            ]
          ],
          [
            [
              -122.468,
              37.794,
              0
            ],
            [
              -122.458,
              37.794,
              0
            ],
            [
              -122.458,
              37.8,
              0
            ],
            [
              -122.468,
              37.8,
              0
            ],
            [
              -122.468,
              37.794,
              0
            ]
          ]
        ]
      },
      "properties": {
        "name": "Presidio Area",
        "description": "Polygon with a hole (inner boundary)",
        "folder_id": "ee675d77-d98f-48d9-92fb-18b6d3cb361c",
        "fill-color": "#2d8659",
        "fill-opacity": 0.4980392156862745,
        "fill-outline-color": "#2d8659"
      }
    }
  ]
}